{"type":"FeatureCollection","features":[{"type":"Feature","geometry":{"type":"Polygon","coordinates":[[[-122.1723144,37.4303035],[-122.1725753,37.4303593],[-122.1726212,37.430224],[-122.1727675,37.4297933],[-122.1724183,37.4297186],[-122.1722706,37.4301536],[-122.1722261,37.4302845],[-122.1723144,37.4303035]]]},"id":null,"properties":{"height":17.845474243164062,"num_floors":null,"class":"university","subtype":"education","has_parts":false,"sources":[{"property":"","dataset":"OpenStreetMap","license":"ODbL-1.0","record_id":"w232841887@8","update_time":"2024-08-25T14:57:23.000Z","confidence":null,"between":null},{"property":"/properties/height","dataset":"Microsoft ML Buildings","license":"ODbL-1.0","record_id":null,"update_time":"2023-09-01T00:00:00.000Z","confidence":0.9839000105857849,"between":null}]}},{"type":"Feature","geometry":{"type":"Polygon","coordinates":[[[-122.1720187,37.4303234],[-122.1720862,37.4302569],[-122.1722103,37.4299689],[-122.1722162,37.4299394],[-122.1722078,37.4299013],[-122.1721585,37.4298499],[-122.1720842,37.4298273],[-122.1720164,37.4298374],[-122.1719455,37.4298658],[-122.1718988,37.4299018],[-122.1718609,37.4299468],[-122.1717602,37.4299289],[-122.1718228,37.4296919],[-122.1717874,37.4296863],[-122.1718126,37.4295998],[-122.1716101,37.4295587],[-122.1715861,37.4296451],[-122.171539,37.4296351],[-122.1713933,37.4300954],[-122.1714295,37.4301021],[-122.1713981,37.4301904],[-122.1715828,37.4302312],[-122.1715914,37.4302005],[-122.1716561,37.4302132],[-122.1717103,37.4300477],[-122.1718118,37.4300656],[-122.1718016,37.4301844],[-122.1718116,37.4302515],[-122.1718337,37.4302978],[-122.1718697,37.4303283],[-122.1719012,37.4303366],[-122.1719543,37.4303443],[-122.1720187,37.4303234]]]},"id":null,"properties":{"height":3.232323408126831,"num_floors":4,"class":"university","subtype":"education","has_parts":false,"sources":[{"property":"","dataset":"OpenStreetMap","license":"ODbL-1.0","record_id":"w1434557267@3","update_time":"2025-10-02T21:41:25.000Z","confidence":null,"between":null},{"property":"/properties/height","dataset":"Microsoft ML Buildings","license":"ODbL-1.0","record_id":null,"update_time":"2023-09-01T00:00:00.000Z","confidence":0.9828000068664551,"between":null}]}},{"type":"Feature","geometry":{"type":"Polygon","coordinates":[[[-122.1699327,37.4259041],[-122.1699365,37.4258937],[-122.169617,37.4258264],[-122.1696598,37.4256982],[-122.1694082,37.4256452],[-122.1693652,37.4257738],[-122.169232,37.4257457],[-122.1691745,37.4259178],[-122.1698788,37.4260663],[-122.1698805,37.4260613],[-122.1699327,37.4259041]]]},"id":null,"properties":{"height":12.5,"num_floors":null,"class":null,"subtype":null,"has_parts":false,"sources":[{"property":"","dataset":"OpenStreetMap","license":"ODbL-1.0","record_id":"w232841914@2","update_time":"2021-09-13T14:32:11.000Z","confidence":null,"between":null},{"property":"/properties/height","dataset":"USGS Lidar","license":null,"record_id":null,"update_time":null,"confidence":null,"between":null}]}},{"type":"Feature","geometry":{"type":"Polygon","coordinates":[[[-122.1695149,37.4266966],[-122.1696584,37.4267243],[-122.1696852,37.4266508],[-122.169541,37.426621],[-122.1695149,37.4266966]]]},"id":null,"properties":{"height":4.5,"num_floors":null,"class":null,"subtype":null,"has_parts":false,"sources":[{"property":"","dataset":"OpenStreetMap","license":"ODbL-1.0","record_id":"w338080122@3","update_time":"2018-05-29T00:24:39.000Z","confidence":null,"between":null},{"property":"/properties/height","dataset":"USGS Lidar","license":null,"record_id":null,"update_time":null,"confidence":null,"between":null}]}},{"type":"Feature","geometry":{"type":"Polygon","coordinates":[[[-122.169928,37.426769],[-122.1699773,37.4266878],[-122.1698837,37.426652],[-122.1698344,37.4267332],[-122.169928,37.426769]]]},"id":null,"properties":{"height":4.795620441436768,"num_floors":null,"class":null,"subtype":null,"has_parts":false,"sources":[{"property":"","dataset":"Microsoft ML Buildings","license":"ODbL-1.0","record_id":null,"update_time":"2023-09-01T00:00:00.000Z","confidence":0.9474999904632568,"between":null}]}},{"type":"Feature","geometry":{"type":"Polygon","coordinates":[[[-122.1698567,37.4284914],[-122.1697701,37.4284715],[-122.1697661,37.4284828],[-122.1697026,37.4284699],[-122.1699206,37.4278262],[-122.170349,37.4279167],[-122.1701274,37.4285643],[-122.1700732,37.428553],[-122.1700783,37.4285377],[-122.1699907,37.4285191],[-122.1699624,37.4286116],[-122.170047,37.4286286],[-122.1700524,37.4286172],[-122.1701935,37.4286467],[-122.170487,37.4287094],[-122.1707835,37.4287725],[-122.171068,37.428833],[-122.1713692,37.4288969],[-122.1714065,37.4288948],[-122.1714468,37.4288769],[-122.1714697,37.4288486],[-122.1715895,37.4284863],[-122.1717888,37.4278892],[-122.1712981,37.4277863],[-122.1713225,37.4277131],[-122.1713418,37.4276552],[-122.1718316,37.427758],[-122.1720128,37.4272125],[-122.1721291,37.4268636],[-122.1721269,37.4268362],[-122.1721087,37.4268104],[-122.172072,37.4267874],[-122.171722,37.4267132],[-122.1713413,37.4266325],[-122.1712739,37.4268328],[-122.1715217,37.4268853],[-122.1715664,37.4267522],[-122.1716979,37.42678],[-122.1716451,37.4269372],[-122.171847,37.42698],[-122.1718051,37.4271045],[-122.1717736,37.4271122],[-122.1717562,37.4271309],[-122.1717633,37.4271551],[-122.171781,37.4271708],[-122.1717616,37.4272277],[-122.1719072,37.4272591],[-122.1718533,37.427417],[-122.1717118,37.4273866],[-122.1713853,37.4273163],[-122.1714318,37.4271799],[-122.1711648,37.4271224],[-122.171118,37.4272596],[-122.1710518,37.4272453],[-122.1710979,37.4271101],[-122.1707082,37.4270262],[-122.1706599,37.4271678],[-122.1705177,37.4271372],[-122.1705315,37.4271212],[-122.170525,37.4271026],[-122.1705697,37.4269805],[-122.1705873,37.4269846],[-122.1706037,37.4269398],[-122.1706377,37.4269477],[-122.1706744,37.4269477],[-122.1707333,37.4269116],[-122.170746,37.4268753],[-122.1707253,37.4268182],[-122.1707548,37.4268025],[-122.1707893,37.4268003],[-122.1708076,37.4267857],[-122.1708218,37.426763],[-122.1708227,37.4267418],[-122.1708126,37.4267258],[-122.1707815,37.4267075],[-122.170758,37.4267056],[-122.1707334,37.4267084],[-122.1707085,37.4267189],[-122.1706999,37.4267382],[-122.1706685,37.426745],[-122.1706138,37.4267332],[-122.1706072,37.4266937],[-122.1705774,37.4266623],[-122.1705362,37.4266463],[-122.1704907,37.4266462],[-122.1704492,37.4266577],[-122.1704165,37.426692],[-122.1703655,37.4266834],[-122.1703535,37.4267281],[-122.1702881,37.426717],[-122.1702535,37.4267286],[-122.170225,37.4267487],[-122.1702073,37.4267794],[-122.1702068,37.4268138],[-122.1702267,37.4268479],[-122.1702583,37.4268696],[-122.170298,37.4268779],[-122.1702837,37.4269211],[-122.1703001,37.4269245],[-122.1702597,37.4270468],[-122.1702456,37.4270593],[-122.1702482,37.4270798],[-122.1701113,37.4270506],[-122.1701575,37.426914],[-122.1697782,37.4268331],[-122.1697316,37.4269711],[-122.1696467,37.426953],[-122.1696914,37.426821],[-122.1694438,37.4267681],[-122.1693983,37.4269028],[-122.1691237,37.4268443],[-122.1689215,37.4268011],[-122.1689797,37.4266248],[-122.1691247,37.426656],[-122.1691428,37.4266044],[-122.169173,37.4265997],[-122.1691874,37.4265837],[-122.1691878,37.4265648],[-122.1691783,37.4265497],[-122.1691641,37.4265396],[-122.1692027,37.4264127],[-122.1694057,37.4264546],[-122.1694637,37.4262903],[-122.1695938,37.42632],[-122.1695525,37.4264494],[-122.1697904,37.4265021],[-122.1698617,37.4263063],[-122.169486,37.4262255],[-122.1691404,37.4261512],[-122.169094,37.426153],[-122.169069,37.4261623],[-122.1690373,37.4261887],[-122.1689158,37.426558],[-122.168833,37.4268099],[-122.1687342,37.4271003],[-122.1692288,37.4272064],[-122.1692108,37.4272593],[-122.1691803,37.4273492],[-122.1686843,37.4272428],[-122.168487,37.4278279],[-122.1683678,37.428182],[-122.1683688,37.4282149],[-122.168382,37.428238],[-122.1684026,37.4282592],[-122.1684389,37.4282754],[-122.1687223,37.4283373],[-122.1689857,37.4283947],[-122.1692787,37.4284533],[-122.1695978,37.4285205],[-122.1697421,37.4285479],[-122.1697371,37.4285597],[-122.1698254,37.4285816],[-122.1698567,37.4284914]],[[-122.1690001,37.4270841],[-122.1690637,37.4268997],[-122.1691459,37.4269172],[-122.1690831,37.4271027],[-122.1690001,37.4270841]],[[-122.1689321,37.4275553],[-122.1688494,37.4275389],[-122.1689128,37.4273549],[-122.1689949,37.4273739],[-122.1689321,37.4275553]],[[-122.1693468,37.4282494],[-122.1693545,37.4282197],[-122.1692448,37.4281947],[-122.1692428,37.4281725],[-122.1692308,37.4281556],[-122.1692171,37.4281435],[-122.1692698,37.4279926],[-122.1690228,37.4279386],[-122.1689731,37.4280915],[-122.1689528,37.4280928],[-122.1689318,37.4281042],[-122.1689161,37.4281228],[-122.1688059,37.4281006],[-122.1686581,37.4280709],[-122.1686978,37.4279449],[-122.1687149,37.4279445],[-122.1687308,37.4279356],[-122.1687438,37.4279198],[-122.1687458,37.4279033],[-122.1687391,37.4278882],[-122.168715,37.4278738],[-122.1687344,37.4278267],[-122.1685914,37.4277953],[-122.1686604,37.427576],[-122.1691402,37.4276707],[-122.1690974,37.427802],[-122.1693489,37.4278526],[-122.1693919,37.4277208],[-122.1694692,37.4277377],[-122.1694241,37.4278685],[-122.1697857,37.4279472],[-122.1696676,37.4283114],[-122.1696415,37.4283059],[-122.1696952,37.4281453],[-122.1694307,37.4280896],[-122.1693753,37.4282554],[-122.1693468,37.4282494]],[[-122.1692963,37.4272769],[-122.1693981,37.4269725],[-122.1701591,37.4271331],[-122.1702245,37.4271469],[-122.1704933,37.4272038],[-122.1705647,37.4272187],[-122.1713316,37.4273806],[-122.1712272,37.4276929],[-122.1711174,37.4280209],[-122.170412,37.4278641],[-122.1701548,37.4278073],[-122.1698947,37.427763],[-122.1691838,37.4276131],[-122.1692963,37.4272769]],[[-122.171663,37.4274516],[-122.1716006,37.4276372],[-122.1715155,37.4276193],[-122.1715807,37.4274347],[-122.171663,37.4274516]],[[-122.1715142,37.4279023],[-122.1714546,37.4280859],[-122.1713706,37.4280687],[-122.1714301,37.4278856],[-122.1715142,37.4279023]],[[-122.1710805,37.4283602],[-122.1708004,37.4283006],[-122.1707322,37.4285028],[-122.1705902,37.4284727],[-122.1705852,37.4284876],[-122.1705634,37.428483],[-122.1706142,37.4283306],[-122.1703442,37.4282745],[-122.1702983,37.4284138],[-122.1702721,37.4284083],[-122.1703881,37.4280731],[-122.1707428,37.4281485],[-122.1707887,37.4280171],[-122.1708707,37.4280356],[-122.1708251,37.4281662],[-122.1710768,37.4282191],[-122.1711205,37.4280886],[-122.1715972,37.428187],[-122.1715275,37.4284135],[-122.171377,37.4283802],[-122.1713594,37.428433],[-122.1713402,37.4284398],[-122.1713252,37.4284517],[-122.1713188,37.4284637],[-122.1713225,37.4284817],[-122.1713371,37.4284984],[-122.1712881,37.4286474],[-122.171142,37.4286136],[-122.1711509,37.4285872],[-122.1710869,37.4285738],[-122.1710138,37.4285581],[-122.1710204,37.4285362],[-122.1710805,37.4283602]]]},"id":null,"properties":{"height":22.5,"num_floors":null,"class":"university","subtype":"education","has_parts":true,"sources":[{"property":"","dataset":"OpenStreetMap","license":"ODbL-1.0","record_id":"r35820@13","update_time":"2025-10-02T21:41:25.000Z","confidence":null,"between":null},{"property":"/properties/height","dataset":"USGS Lidar","license":null,"record_id":null,"update_time":null,"confidence":null,"between":null}]}},{"type":"Feature","geometry":{"type":"Polygon","coordinates":[[[-122.17024,37.426141],[-122.17058,37.426213],[-122.170699,37.425859],[-122.170058,37.425723],[-122.170015,37.425854],[-122.170315,37.425917],[-122.17024,37.426141]]]},"id":null,"properties":{"height":10.6,"num_floors":1,"class":"university","subtype":"education","has_parts":false,"sources":[{"property":"","dataset":"OpenStreetMap","license":"ODbL-1.0","record_id":"w232841907@4","update_time":"2026-05-07T00:08:58.000Z","confidence":null,"between":null},{"property":"/properties/height","dataset":"USGS Lidar","license":null,"record_id":null,"update_time":null,"confidence":null,"between":null}]}},{"type":"Feature","geometry":{"type":"Polygon","coordinates":[[[-122.1699378,37.4260815],[-122.1702155,37.4261397],[-122.170279,37.425949],[-122.1700052,37.4258916],[-122.1699966,37.4259175],[-122.1699327,37.4259041],[-122.1698805,37.4260613],[-122.1699404,37.4260738],[-122.1699378,37.4260815]]]},"id":null,"properties":{"height":10.6,"num_floors":null,"class":null,"subtype":null,"has_parts":false,"sources":[{"property":"","dataset":"OpenStreetMap","license":"ODbL-1.0","record_id":"w232841946@2","update_time":"2021-09-13T14:32:11.000Z","confidence":null,"between":null},{"property":"/properties/height","dataset":"USGS Lidar","license":null,"record_id":null,"update_time":null,"confidence":null,"between":null}]}},{"type":"Feature","geometry":{"type":"Polygon","coordinates":[[[-122.1701192,37.4248888],[-122.1701683,37.424741],[-122.1698581,37.424676],[-122.169809,37.4248238],[-122.170014,37.4248668],[-122.1701192,37.4248888]]]},"id":null,"properties":{"height":10.7,"num_floors":3,"class":"university","subtype":"education","has_parts":false,"sources":[{"property":"","dataset":"OpenStreetMap","license":"ODbL-1.0","record_id":"w30775802@4","update_time":"2019-10-27T18:12:37.000Z","confidence":null,"between":null},{"property":"/properties/height","dataset":"USGS Lidar","license":null,"record_id":null,"update_time":null,"confidence":null,"between":null}]}},{"type":"Feature","geometry":{"type":"Polygon","coordinates":[[[-122.169613,37.423938],[-122.169636,37.424216],[-122.169825,37.424232],[-122.169829,37.424208],[-122.170075,37.424229],[-122.17008,37.424182],[-122.170157,37.424187],[-122.170182,37.424053],[-122.170137,37.423915],[-122.170068,37.423928],[-122.170046,37.423883],[-122.169891,37.423911],[-122.169884,37.423888],[-122.169613,37.423938]]]},"id":null,"properties":{"height":13.1,"num_floors":null,"class":"university","subtype":"education","has_parts":false,"sources":[{"property":"","dataset":"OpenStreetMap","license":"ODbL-1.0","record_id":"w232805665@3","update_time":"2024-08-25T14:57:07.000Z","confidence":null,"between":null},{"property":"/properties/height","dataset":"USGS Lidar","license":null,"record_id":null,"update_time":null,"confidence":null,"between":null}]}},{"type":"Feature","geometry":{"type":"Polygon","coordinates":[[[-122.1698252,37.425265],[-122.1696646,37.4252318],[-122.1696103,37.4253975],[-122.170015,37.4254811],[-122.1700693,37.4253154],[-122.1698252,37.425265]]]},"id":null,"properties":{"height":11.3,"num_floors":3,"class":"university","subtype":"education","has_parts":false,"sources":[{"property":"","dataset":"OpenStreetMap","license":"ODbL-1.0","record_id":"w30775803@3","update_time":"2019-10-27T18:12:37.000Z","confidence":null,"between":null},{"property":"/properties/height","dataset":"USGS Lidar","license":null,"record_id":null,"update_time":null,"confidence":null,"between":null}]}},{"type":"Feature","geometry":{"type":"Polygon","coordinates":[[[-122.1696763,37.425705],[-122.1698282,37.4257371],[-122.1698541,37.42566],[-122.1697021,37.4256279],[-122.1696763,37.425705]]]},"id":null,"properties":{"height":5.4,"num_floors":null,"class":null,"subtype":null,"has_parts":false,"sources":[{"property":"","dataset":"OpenStreetMap","license":"ODbL-1.0","record_id":"w232841913@2","update_time":"2024-09-11T05:14:03.000Z","confidence":null,"between":null},{"property":"/properties/height","dataset":"USGS Lidar","license":null,"record_id":null,"update_time":null,"confidence":null,"between":null}]}},{"type":"Feature","geometry":{"type":"Polygon","coordinates":[[[-122.1716429,37.4255679],[-122.1710016,37.4254307],[-122.1709093,37.4257028],[-122.1715505,37.4258401],[-122.1716429,37.4255679]]]},"id":null,"properties":{"height":7.162870407104492,"num_floors":null,"class":"university","subtype":"education","has_parts":false,"sources":[{"property":"","dataset":"OpenStreetMap","license":"ODbL-1.0","record_id":"w31711513@6","update_time":"2020-12-20T23:52:25.000Z","confidence":null,"between":null},{"property":"/properties/height","dataset":"Microsoft ML Buildings","license":"ODbL-1.0","record_id":null,"update_time":"2023-09-01T00:00:00.000Z","confidence":0.9861000180244446,"between":null}]}},{"type":"Feature","geometry":{"type":"Polygon","coordinates":[[[-122.1711697,37.4240603],[-122.1713107,37.4240526],[-122.1712785,37.4236801],[-122.1709061,37.4237004],[-122.1709076,37.4237176],[-122.1709137,37.4237889],[-122.1708885,37.4237903],[-122.1708956,37.4238732],[-122.1708968,37.4238866],[-122.1706791,37.4238984],[-122.1706942,37.4240744],[-122.1707145,37.4243121],[-122.1707176,37.4243481],[-122.1707052,37.4243855],[-122.1706073,37.4246803],[-122.1708698,37.4247352],[-122.1709163,37.424595],[-122.1711683,37.4246478],[-122.1712436,37.4244207],[-122.170993,37.4243682],[-122.170978,37.4243651],[-122.1709723,37.4242989],[-122.1709527,37.4240721],[-122.1710113,37.4240689],[-122.1711697,37.4240603]]]},"id":null,"properties":{"height":12.2,"num_floors":null,"class":"university","subtype":"education","has_parts":false,"sources":[{"property":"","dataset":"OpenStreetMap","license":"ODbL-1.0","record_id":"w26252222@19","update_time":"2026-04-29T02:43:21.000Z","confidence":null,"between":null},{"property":"/properties/height","dataset":"USGS Lidar","license":null,"record_id":null,"update_time":null,"confidence":null,"between":null}]}},{"type":"Feature","geometry":{"type":"Polygon","coordinates":[[[-122.1705838,37.425013],[-122.1706029,37.424956],[-122.170458,37.4249254],[-122.1704036,37.4250877],[-122.1702387,37.4250529],[-122.1702128,37.4251302],[-122.1701789,37.4252313],[-122.1702072,37.4252372],[-122.1703388,37.425265],[-122.1703044,37.4253677],[-122.1703471,37.4253768],[-122.1703338,37.4254165],[-122.1704022,37.425431],[-122.1703948,37.4254531],[-122.1705567,37.4254873],[-122.1706188,37.4253019],[-122.1705753,37.4252927],[-122.170581,37.4252757],[-122.1707909,37.42532],[-122.1708264,37.4252139],[-122.1705632,37.4251583],[-122.1705705,37.4251366],[-122.1706777,37.4251593],[-122.1707173,37.4250412],[-122.1705838,37.425013]]]},"id":null,"properties":{"height":15.4,"num_floors":3,"class":"university","subtype":"education","has_parts":false,"sources":[{"property":"","dataset":"OpenStreetMap","license":"ODbL-1.0","record_id":"w30775809@8","update_time":"2023-10-28T15:27:53.000Z","confidence":null,"between":null},{"property":"/properties/height","dataset":"USGS Lidar","license":null,"record_id":null,"update_time":null,"confidence":null,"between":null}]}},{"type":"Feature","geometry":{"type":"Polygon","coordinates":[[[-122.1705389,37.4256332],[-122.1707793,37.4256848],[-122.1708196,37.4255664],[-122.1705792,37.4255148],[-122.1705389,37.4256332]]]},"id":null,"properties":{"height":6.716517448425293,"num_floors":2,"class":"university","subtype":"education","has_parts":false,"sources":[{"property":"","dataset":"OpenStreetMap","license":"ODbL-1.0","record_id":"w886812786@1","update_time":"2020-12-20T23:52:25.000Z","confidence":null,"between":null},{"property":"/properties/height","dataset":"Microsoft ML Buildings","license":"ODbL-1.0","record_id":null,"update_time":"2023-09-01T00:00:00.000Z","confidence":0.9688000082969666,"between":null}]}},{"type":"Feature","geometry":{"type":"Polygon","coordinates":[[[-122.171389,37.426387],[-122.171438,37.426243],[-122.170798,37.426107],[-122.17075,37.426251],[-122.171389,37.426387]]]},"id":null,"properties":{"height":11.4,"num_floors":1,"class":"university","subtype":"education","has_parts":false,"sources":[{"property":"","dataset":"OpenStreetMap","license":"ODbL-1.0","record_id":"w232841919@4","update_time":"2022-10-04T00:12:35.000Z","confidence":null,"between":null},{"property":"/properties/height","dataset":"USGS Lidar","license":null,"record_id":null,"update_time":null,"confidence":null,"between":null}]}},{"type":"Feature","geometry":{"type":"Polygon","coordinates":[[[-122.171462,37.426167],[-122.17151,37.426024],[-122.170871,37.425888],[-122.170823,37.426032],[-122.171462,37.426167]]]},"id":null,"properties":{"height":11.1,"num_floors":null,"class":"university","subtype":"education","has_parts":false,"sources":[{"property":"","dataset":"OpenStreetMap","license":"ODbL-1.0","record_id":"w232841878@4","update_time":"2020-12-20T23:52:25.000Z","confidence":null,"between":null},{"property":"/properties/height","dataset":"USGS Lidar","license":null,"record_id":null,"update_time":null,"confidence":null,"between":null}]}},{"type":"Feature","geometry":{"type":"Polygon","coordinates":[[[-122.1716243,37.427001],[-122.1716032,37.4270643],[-122.171696,37.4270852],[-122.1717189,37.4270206],[-122.1716243,37.427001]]]},"id":null,"properties":{"height":2.461857318878174,"num_floors":null,"class":null,"subtype":null,"has_parts":false,"sources":[{"property":"","dataset":"OpenStreetMap","license":"ODbL-1.0","record_id":"w482908287@3","update_time":"2022-07-30T03:36:15.000Z","confidence":null,"between":null},{"property":"/properties/height","dataset":"Microsoft ML Buildings","license":"ODbL-1.0","record_id":null,"update_time":"2023-09-01T00:00:00.000Z","confidence":0.9842000007629395,"between":null}]}},{"type":"Feature","geometry":{"type":"Polygon","coordinates":[[[-122.1710525,37.4253765],[-122.1714915,37.4254674],[-122.1715317,37.4253451],[-122.1712484,37.4252865],[-122.171285,37.4251749],[-122.1713241,37.425056],[-122.1716093,37.4251151],[-122.1716471,37.4249999],[-122.171206,37.4249086],[-122.1711296,37.4251413],[-122.1710525,37.4253765]]]},"id":null,"properties":{"height":6.125585079193115,"num_floors":null,"class":null,"subtype":null,"has_parts":false,"sources":[{"property":"","dataset":"OpenStreetMap","license":"ODbL-1.0","record_id":"w26292291@11","update_time":"2024-12-18T09:55:07.000Z","confidence":null,"between":null},{"property":"/properties/height","dataset":"Microsoft ML Buildings","license":"ODbL-1.0","record_id":null,"update_time":"2023-09-01T00:00:00.000Z","confidence":0.9660999774932861,"between":null}]}},{"type":"Feature","geometry":{"type":"Polygon","coordinates":[[[-122.1714932,37.4238784],[-122.1715202,37.4241034],[-122.1717152,37.4240404],[-122.1717122,37.4240264],[-122.1720482,37.4240714],[-122.1719742,37.4239244],[-122.1719602,37.4239204],[-122.1719491,37.4239006],[-122.1719042,37.4238204],[-122.1718492,37.4238304],[-122.1718402,37.4238124],[-122.1719242,37.4238114],[-122.1719122,37.4237114],[-122.1715452,37.4237424],[-122.1715612,37.4238674],[-122.1715272,37.4238664],[-122.1715262,37.4238784],[-122.1714932,37.4238784]],[[-122.1716842,37.4239095],[-122.1716752,37.4238297],[-122.1717812,37.4238201],[-122.1717942,37.4238502],[-122.1717262,37.4239157],[-122.1716842,37.4239095]]]},"id":null,"properties":{"height":8.5,"num_floors":1,"class":"university","subtype":"education","has_parts":false,"sources":[{"property":"","dataset":"OpenStreetMap","license":"ODbL-1.0","record_id":"r3126353@3","update_time":"2021-09-14T07:33:38.000Z","confidence":null,"between":null},{"property":"/properties/height","dataset":"USGS Lidar","license":null,"record_id":null,"update_time":null,"confidence":null,"between":null}]}},{"type":"Feature","geometry":{"type":"Polygon","coordinates":[[[-122.1716258,37.4251364],[-122.1717181,37.425156],[-122.1717602,37.4250313],[-122.1716679,37.4250117],[-122.1716258,37.4251364]]]},"id":null,"properties":{"height":8.5,"num_floors":null,"class":"university","subtype":"education","has_parts":false,"sources":[{"property":"","dataset":"OpenStreetMap","license":"ODbL-1.0","record_id":"w26249839@9","update_time":"2020-01-28T08:06:27.000Z","confidence":null,"between":null},{"property":"/properties/height","dataset":"USGS Lidar","license":null,"record_id":null,"update_time":null,"confidence":null,"between":null}]}},{"type":"Feature","geometry":{"type":"Polygon","coordinates":[[[-122.1717218,37.4253766],[-122.1717331,37.4253432],[-122.1716022,37.4253152],[-122.1715909,37.4253487],[-122.1717218,37.4253766]]]},"id":null,"properties":{"height":2.7,"num_floors":null,"class":null,"subtype":null,"has_parts":false,"sources":[{"property":"","dataset":"OpenStreetMap","license":"ODbL-1.0","record_id":"w981626392@1","update_time":"2021-09-10T14:21:25.000Z","confidence":null,"between":null},{"property":"/properties/height","dataset":"USGS Lidar","license":null,"record_id":null,"update_time":null,"confidence":null,"between":null}]}},{"type":"Feature","geometry":{"type":"Polygon","coordinates":[[[-122.1715313,37.4254591],[-122.1717629,37.4255051],[-122.1717804,37.4254494],[-122.1717462,37.4254426],[-122.1717633,37.4253881],[-122.171566,37.4253489],[-122.1715313,37.4254591]]]},"id":null,"properties":{"height":3.7,"num_floors":null,"class":null,"subtype":null,"has_parts":false,"sources":[{"property":"","dataset":"OpenStreetMap","license":"ODbL-1.0","record_id":"w26292353@1","update_time":"2019-06-08T03:46:16.000Z","confidence":null,"between":null},{"property":"/properties/height","dataset":"USGS Lidar","license":null,"record_id":null,"update_time":null,"confidence":null,"between":null}]}},{"type":"Feature","geometry":{"type":"Polygon","coordinates":[[[-122.1716872,37.4256904],[-122.1717223,37.4256978],[-122.1717469,37.4256241],[-122.1717119,37.4256167],[-122.1716872,37.4256904]]]},"id":null,"properties":{"height":null,"num_floors":null,"class":null,"subtype":null,"has_parts":false,"sources":[{"property":"","dataset":"OpenStreetMap","license":"ODbL-1.0","record_id":"w981628183@1","update_time":"2021-09-10T14:25:43.000Z","confidence":null,"between":null}]}},{"type":"Feature","geometry":{"type":"Polygon","coordinates":[[[-122.1715885,37.4258379],[-122.1718508,37.4258943],[-122.1718913,37.4257756],[-122.171629,37.4257191],[-122.1715885,37.4258379]]]},"id":null,"properties":{"height":6.189080715179443,"num_floors":null,"class":"university","subtype":"education","has_parts":false,"sources":[{"property":"","dataset":"OpenStreetMap","license":"ODbL-1.0","record_id":"w31711516@3","update_time":"2020-12-20T23:52:25.000Z","confidence":null,"between":null},{"property":"/properties/height","dataset":"Microsoft ML Buildings","license":"ODbL-1.0","record_id":null,"update_time":"2023-09-01T00:00:00.000Z","confidence":0.9947999715805054,"between":null}]}},{"type":"Feature","geometry":{"type":"Polygon","coordinates":[[[-122.1716923,37.4255791],[-122.171744,37.4255911],[-122.171757,37.4255557],[-122.1717053,37.4255437],[-122.1716923,37.4255791]]]},"id":null,"properties":{"height":null,"num_floors":null,"class":null,"subtype":null,"has_parts":false,"sources":[{"property":"","dataset":"OpenStreetMap","license":"ODbL-1.0","record_id":"w981628184@1","update_time":"2021-09-10T14:25:43.000Z","confidence":null,"between":null}]}},{"type":"Feature","geometry":{"type":"Polygon","coordinates":[[[-122.172065,37.424792],[-122.172423,37.424868],[-122.172429,37.424849],[-122.172444,37.424852],[-122.172467,37.424774],[-122.172406,37.424759],[-122.172417,37.42473],[-122.172392,37.424451],[-122.172278,37.424456],[-122.172284,37.42453],[-122.17223,37.424535],[-122.172227,37.424518],[-122.171662,37.424547],[-122.171673,37.424673],[-122.172054,37.424655],[-122.172065,37.424792]],[[-122.1721635,37.4246584],[-122.1723039,37.4246513],[-122.1723104,37.4247326],[-122.1722005,37.4247092],[-122.1721971,37.4246669],[-122.1721643,37.4246686],[-122.1721635,37.4246584]]]},"id":null,"properties":{"height":7.1,"num_floors":null,"class":null,"subtype":null,"has_parts":false,"sources":[{"property":"","dataset":"OpenStreetMap","license":"ODbL-1.0","record_id":"r10644548@1","update_time":"2020-01-28T07:52:58.000Z","confidence":null,"between":null},{"property":"/properties/height","dataset":"USGS Lidar","license":null,"record_id":null,"update_time":null,"confidence":null,"between":null}]}},{"type":"Feature","geometry":{"type":"Polygon","coordinates":[[[-122.172146,37.4257949],[-122.1724244,37.4258517],[-122.1724462,37.4257841],[-122.172342,37.4257628],[-122.172458,37.4254046],[-122.1719491,37.4253007],[-122.1718207,37.4256972],[-122.1721555,37.4257655],[-122.172146,37.4257949]]]},"id":null,"properties":{"height":7.94111967086792,"num_floors":null,"class":"university","subtype":"education","has_parts":false,"sources":[{"property":"","dataset":"OpenStreetMap","license":"ODbL-1.0","record_id":"w26292283@4","update_time":"2021-04-15T05:06:22.000Z","confidence":null,"between":null},{"property":"/properties/height","dataset":"Microsoft ML Buildings","license":"ODbL-1.0","record_id":null,"update_time":"2023-09-01T00:00:00.000Z","confidence":0.9904999732971191,"between":null}]}},{"type":"Feature","geometry":{"type":"Polygon","coordinates":[[[-122.171569,37.426271],[-122.171518,37.426415],[-122.171519,37.426416],[-122.172129,37.426547],[-122.172252,37.426179],[-122.17164,37.426051],[-122.171595,37.426194],[-122.17202,37.426284],[-122.171996,37.426362],[-122.171569,37.426271]]]},"id":null,"properties":{"height":11.1,"num_floors":null,"class":"university","subtype":"education","has_parts":false,"sources":[{"property":"","dataset":"OpenStreetMap","license":"ODbL-1.0","record_id":"w232841924@4","update_time":"2021-03-19T06:41:25.000Z","confidence":null,"between":null},{"property":"/properties/height","dataset":"USGS Lidar","license":null,"record_id":null,"update_time":null,"confidence":null,"between":null}]}},{"type":"Feature","geometry":{"type":"Polygon","coordinates":[[[-122.1724839,37.4291339],[-122.1725369,37.4289739],[-122.1721978,37.4289059],[-122.1722477,37.4287412],[-122.17205,37.4287002],[-122.1719648,37.428965],[-122.1719939,37.428984],[-122.1720131,37.4290138],[-122.1720152,37.4290358],[-122.1724839,37.4291339]]]},"id":null,"properties":{"height":12.3,"num_floors":null,"class":"university","subtype":"education","has_parts":false,"sources":[{"property":"","dataset":"OpenStreetMap","license":"ODbL-1.0","record_id":"w232841930@5","update_time":"2024-08-25T14:57:29.000Z","confidence":null,"between":null},{"property":"/properties/height","dataset":"USGS Lidar","license":null,"record_id":null,"update_time":null,"confidence":null,"between":null}]}},{"type":"Feature","geometry":{"type":"Polygon","coordinates":[[[-122.1723135,37.4265033],[-122.1729478,37.4266376],[-122.1730412,37.4263575],[-122.1724072,37.4262196],[-122.1723135,37.4265033]]]},"id":null,"properties":{"height":12.008383750915527,"num_floors":4,"class":"university","subtype":"education","has_parts":true,"sources":[{"property":"","dataset":"OpenStreetMap","license":"ODbL-1.0","record_id":"w232841921@4","update_time":"2026-05-04T01:11:08.000Z","confidence":null,"between":null},{"property":"/properties/height","dataset":"Microsoft ML Buildings","license":"ODbL-1.0","record_id":null,"update_time":"2023-09-01T00:00:00.000Z","confidence":0.9821000099182129,"between":null}]}},{"type":"Feature","geometry":{"type":"Polygon","coordinates":[[[-122.1729028,37.4284031],[-122.172977,37.4284202],[-122.173058,37.4281782],[-122.1728186,37.4281275],[-122.172368,37.4280322],[-122.1723255,37.4281587],[-122.172287,37.4282732],[-122.1726968,37.42836],[-122.1729028,37.4284031]]]},"id":null,"properties":{"height":14.8,"num_floors":null,"class":"university","subtype":"education","has_parts":false,"sources":[{"property":"","dataset":"OpenStreetMap","license":"ODbL-1.0","record_id":"w232841909@4","update_time":"2019-06-11T06:27:54.000Z","confidence":null,"between":null},{"property":"/properties/height","dataset":"USGS Lidar","license":null,"record_id":null,"update_time":null,"confidence":null,"between":null}]}},{"type":"Feature","geometry":{"type":"Polygon","coordinates":[[[-122.172594,37.4286771],[-122.172874,37.4287357],[-122.1729367,37.4285469],[-122.1729529,37.428498],[-122.1728741,37.4284815],[-122.1729028,37.4284031],[-122.1726968,37.42836],[-122.1726801,37.4284023],[-122.172669,37.4284357],[-122.1722551,37.4283491],[-122.1722449,37.4283799],[-122.1721995,37.4283704],[-122.1721704,37.4284581],[-122.1721413,37.4285458],[-122.1721857,37.4285551],[-122.1721744,37.4285893],[-122.1725684,37.4286717],[-122.172594,37.4286771]]]},"id":null,"properties":{"height":18.4,"num_floors":null,"class":"university","subtype":"education","has_parts":false,"sources":[{"property":"","dataset":"OpenStreetMap","license":"ODbL-1.0","record_id":"w232841932@6","update_time":"2024-08-25T14:57:30.000Z","confidence":null,"between":null},{"property":"/properties/height","dataset":"USGS Lidar","license":null,"record_id":null,"update_time":null,"confidence":null,"between":null}]}},{"type":"Feature","geometry":{"type":"Polygon","coordinates":[[[-122.1728767,37.4279602],[-122.1731219,37.4280124],[-122.173203,37.4277725],[-122.1730383,37.4277374],[-122.1725369,37.4276304],[-122.1724557,37.4278705],[-122.1728767,37.4279602]]]},"id":null,"properties":{"height":8.740488052368164,"num_floors":null,"class":"university","subtype":"education","has_parts":false,"sources":[{"property":"","dataset":"OpenStreetMap","license":"ODbL-1.0","record_id":"w232841910@4","update_time":"2019-06-06T07:52:05.000Z","confidence":null,"between":null},{"property":"/properties/height","dataset":"Microsoft ML Buildings","license":"ODbL-1.0","record_id":null,"update_time":"2023-09-01T00:00:00.000Z","confidence":0.9836000204086304,"between":null}]}},{"type":"Feature","geometry":{"type":"Polygon","coordinates":[[[-122.1727327,37.4291803],[-122.1727277,37.4291953],[-122.1727747,37.4292093],[-122.1728827,37.4292163],[-122.1729867,37.4291973],[-122.1730777,37.4291533],[-122.1731507,37.4290903],[-122.1731957,37.4290133],[-122.1732027,37.4289713],[-122.1731837,37.4289673],[-122.1731917,37.4289433],[-122.1731517,37.4289333],[-122.1731427,37.4289623],[-122.1730367,37.4289433],[-122.1730547,37.4288833],[-122.1727077,37.4288133],[-122.1726847,37.4288863],[-122.1726127,37.4288733],[-122.1725687,37.4290123],[-122.1727757,37.4290543],[-122.1727467,37.4291493],[-122.1727137,37.4291423],[-122.1727027,37.4291733],[-122.1727327,37.4291803]]]},"id":null,"properties":{"height":14.4,"num_floors":null,"class":"university","subtype":"education","has_parts":false,"sources":[{"property":"","dataset":"OpenStreetMap","license":"ODbL-1.0","record_id":"w232841892@4","update_time":"2022-07-27T02:31:24.000Z","confidence":null,"between":null},{"property":"/properties/height","dataset":"USGS Lidar","license":null,"record_id":null,"update_time":null,"confidence":null,"between":null}]}},{"type":"Feature","geometry":{"type":"Polygon","coordinates":[[[-122.173045,37.4276323],[-122.1732308,37.4276713],[-122.1733038,37.4274517],[-122.1730586,37.4274003],[-122.1726341,37.4273113],[-122.1726249,37.4273391],[-122.1725812,37.4273299],[-122.1725532,37.4274144],[-122.1725276,37.4274912],[-122.1725696,37.4275],[-122.1725595,37.4275305],[-122.173045,37.4276323]]]},"id":null,"properties":{"height":10.534436225891113,"num_floors":null,"class":"university","subtype":"education","has_parts":false,"sources":[{"property":"","dataset":"OpenStreetMap","license":"ODbL-1.0","record_id":"w232841918@3","update_time":"2026-05-06T03:12:55.000Z","confidence":null,"between":null},{"property":"/properties/height","dataset":"Microsoft ML Buildings","license":"ODbL-1.0","record_id":null,"update_time":"2023-09-01T00:00:00.000Z","confidence":0.9908000230789185,"between":null}]}},{"type":"Feature","geometry":{"type":"Polygon","coordinates":[[[-122.172938,37.427237],[-122.172997,37.427061],[-122.1729072,37.4270416],[-122.1728648,37.4270324],[-122.172775,37.427013],[-122.172718,37.427192],[-122.172938,37.427237]]]},"id":null,"properties":{"height":9.3,"num_floors":null,"class":null,"subtype":null,"has_parts":false,"sources":[{"property":"","dataset":"OpenStreetMap","license":"ODbL-1.0","record_id":"w232841931@3","update_time":"2024-08-25T14:57:30.000Z","confidence":null,"between":null},{"property":"/properties/height","dataset":"USGS Lidar","license":null,"record_id":null,"update_time":null,"confidence":null,"between":null}]}},{"type":"Feature","geometry":{"type":"Polygon","coordinates":[[[-122.172545,37.424455],[-122.172782,37.424471],[-122.172792,37.42437],[-122.172556,37.424354],[-122.172545,37.424455]]]},"id":null,"properties":{"height":6.0,"num_floors":null,"class":null,"subtype":null,"has_parts":false,"sources":[{"property":"","dataset":"OpenStreetMap","license":"ODbL-1.0","record_id":"w232805752@1","update_time":"2013-08-08T15:53:31.000Z","confidence":null,"between":null},{"property":"/properties/height","dataset":"USGS Lidar","license":null,"record_id":null,"update_time":null,"confidence":null,"between":null}]}},{"type":"Feature","geometry":{"type":"Polygon","coordinates":[[[-122.172634,37.424584],[-122.172628,37.424605],[-122.172743,37.424628],[-122.172769,37.424553],[-122.172583,37.424514],[-122.172565,37.424569],[-122.172634,37.424584]]]},"id":null,"properties":{"height":6.2,"num_floors":null,"class":null,"subtype":null,"has_parts":false,"sources":[{"property":"","dataset":"OpenStreetMap","license":"ODbL-1.0","record_id":"w232805762@3","update_time":"2018-04-30T09:53:28.000Z","confidence":null,"between":null},{"property":"/properties/height","dataset":"USGS Lidar","license":null,"record_id":null,"update_time":null,"confidence":null,"between":null}]}},{"type":"Feature","geometry":{"type":"Polygon","coordinates":[[[-122.1726562,37.4254144],[-122.1727506,37.4254349],[-122.1728107,37.4252645],[-122.1722528,37.4251418],[-122.1721927,37.425319],[-122.1726562,37.4254144]]]},"id":null,"properties":{"height":6.0,"num_floors":1,"class":null,"subtype":null,"has_parts":false,"sources":[{"property":"","dataset":"OpenStreetMap","license":"ODbL-1.0","record_id":"w31711531@3","update_time":"2024-12-18T09:55:07.000Z","confidence":null,"between":null},{"property":"/properties/height","dataset":"USGS Lidar","license":null,"record_id":null,"update_time":null,"confidence":null,"between":null}]}},{"type":"Feature","geometry":{"type":"Polygon","coordinates":[[[-122.1727077,37.4260086],[-122.1727241,37.4260121],[-122.1728679,37.4255864],[-122.1726115,37.4255318],[-122.1724826,37.4259136],[-122.1721201,37.4258365],[-122.1720778,37.4259618],[-122.1723591,37.4260217],[-122.1723717,37.4259845],[-122.1724519,37.4260016],[-122.1724365,37.426047],[-122.1726025,37.4260823],[-122.1726078,37.4260669],[-122.1726826,37.4260828],[-122.1727077,37.4260086]]]},"id":null,"properties":{"height":19.7,"num_floors":2,"class":"university","subtype":"education","has_parts":false,"sources":[{"property":"","dataset":"OpenStreetMap","license":"ODbL-1.0","record_id":"w341941035@4","update_time":"2020-12-20T20:38:31.000Z","confidence":null,"between":null},{"property":"/properties/height","dataset":"USGS Lidar","license":null,"record_id":null,"update_time":null,"confidence":null,"between":null}]}},{"type":"Feature","geometry":{"type":"Polygon","coordinates":[[[-122.1660796,37.4275166],[-122.1660902,37.4274864],[-122.1661309,37.4274954],[-122.1661691,37.4273867],[-122.1661271,37.4273774],[-122.1661385,37.4273448],[-122.1660411,37.4273232],[-122.1660303,37.4273541],[-122.1659892,37.427345],[-122.1659505,37.4274552],[-122.1659938,37.4274648],[-122.1659831,37.4274952],[-122.1660796,37.4275166]]]},"id":null,"properties":{"height":4.8,"num_floors":null,"class":null,"subtype":null,"has_parts":false,"sources":[{"property":"","dataset":"OpenStreetMap","license":"ODbL-1.0","record_id":"w232805746@1","update_time":"2021-03-14T20:01:29.000Z","confidence":null,"between":null},{"property":"/properties/height","dataset":"USGS Lidar","license":null,"record_id":null,"update_time":null,"confidence":null,"between":null}]}},{"type":"Feature","geometry":{"type":"Polygon","coordinates":[[[-122.165999,37.428878],[-122.166047,37.428748],[-122.165911,37.428718],[-122.165959,37.428562],[-122.166101,37.42859],[-122.166144,37.428458],[-122.165763,37.428379],[-122.165745,37.428426],[-122.165733,37.428421],[-122.165726,37.428436],[-122.165674,37.428426],[-122.165578,37.428721],[-122.165646,37.428734],[-122.165621,37.428797],[-122.165999,37.428878]]]},"id":null,"properties":{"height":10.85030746459961,"num_floors":null,"class":"university","subtype":"education","has_parts":false,"sources":[{"property":"","dataset":"OpenStreetMap","license":"ODbL-1.0","record_id":"w232805716@3","update_time":"2021-03-25T07:55:49.000Z","confidence":null,"between":null},{"property":"/properties/height","dataset":"Microsoft ML Buildings","license":"ODbL-1.0","record_id":null,"update_time":"2023-09-01T00:00:00.000Z","confidence":0.9901999831199646,"between":null}]}},{"type":"Feature","geometry":{"type":"Polygon","coordinates":[[[-122.1658194,37.4277175],[-122.1664794,37.4278575],[-122.1665504,37.4276445],[-122.1658904,37.4275045],[-122.1658194,37.4277175]]]},"id":null,"properties":{"height":13.4,"num_floors":null,"class":null,"subtype":null,"has_parts":false,"sources":[{"property":"","dataset":"OpenStreetMap","license":"ODbL-1.0","record_id":"w232805718@3","update_time":"2024-08-25T14:57:14.000Z","confidence":null,"between":null},{"property":"/properties/height","dataset":"USGS Lidar","license":null,"record_id":null,"update_time":null,"confidence":null,"between":null}]}},{"type":"Feature","geometry":{"type":"Polygon","coordinates":[[[-122.166787,37.429313],[-122.166833,37.429169],[-122.166841,37.429171],[-122.16686,37.429119],[-122.166681,37.429079],[-122.166743,37.428887],[-122.166793,37.428896],[-122.166832,37.428757],[-122.166759,37.428744],[-122.16677,37.428705],[-122.166687,37.428688],[-122.16669,37.42868],[-122.1666524,37.4286572],[-122.166551,37.428652],[-122.166549,37.428658],[-122.166468,37.428641],[-122.166452,37.428675],[-122.166373,37.42866],[-122.166335,37.428795],[-122.166355,37.428801],[-122.166293,37.428995],[-122.166132,37.428959],[-122.166114,37.429006],[-122.166122,37.429008],[-122.166074,37.429153],[-122.166058,37.429153],[-122.166035,37.429223],[-122.166252,37.42927],[-122.166241,37.429323],[-122.16654,37.429388],[-122.166558,37.429333],[-122.166772,37.429384],[-122.166794,37.429316],[-122.166787,37.429313]]]},"id":null,"properties":{"height":10.997883796691895,"num_floors":null,"class":null,"subtype":null,"has_parts":false,"sources":[{"property":"","dataset":"OpenStreetMap","license":"ODbL-1.0","record_id":"w232805722@5","update_time":"2024-08-25T14:57:16.000Z","confidence":null,"between":null},{"property":"/properties/height","dataset":"Microsoft ML Buildings","license":"ODbL-1.0","record_id":null,"update_time":"2023-09-01T00:00:00.000Z","confidence":0.9904000163078308,"between":null}]}},{"type":"Feature","geometry":{"type":"Polygon","coordinates":[[[-122.1659656,37.4272765],[-122.1666216,37.4274155],[-122.1666896,37.4272105],[-122.1660336,37.4270715],[-122.1659656,37.4272765]]]},"id":null,"properties":{"height":9.985930442810059,"num_floors":null,"class":null,"subtype":null,"has_parts":false,"sources":[{"property":"","dataset":"OpenStreetMap","license":"ODbL-1.0","record_id":"w232805672@2","update_time":"2024-08-25T14:57:10.000Z","confidence":null,"between":null},{"property":"/properties/height","dataset":"Microsoft ML Buildings","license":"ODbL-1.0","record_id":null,"update_time":"2023-09-01T00:00:00.000Z","confidence":0.9836000204086304,"between":null}]}},{"type":"Feature","geometry":{"type":"Polygon","coordinates":[[[-122.166217,37.426103],[-122.16643,37.426152],[-122.166579,37.425704],[-122.166377,37.425661],[-122.166217,37.426103]]]},"id":null,"properties":{"height":4.5,"num_floors":null,"class":null,"subtype":null,"has_parts":false,"sources":[{"property":"","dataset":"OpenStreetMap","license":"ODbL-1.0","record_id":"w232805681@2","update_time":"2024-08-12T09:35:33.000Z","confidence":null,"between":null},{"property":"/properties/height","dataset":"USGS Lidar","license":null,"record_id":null,"update_time":null,"confidence":null,"between":null}]}},{"type":"Feature","geometry":{"type":"Polygon","coordinates":[[[-122.1665177,37.4276091],[-122.1665275,37.4275789],[-122.1665659,37.4275867],[-122.1666011,37.4274782],[-122.1665628,37.4274704],[-122.1665737,37.427437],[-122.1664375,37.4274092],[-122.166428,37.4274383],[-122.1663864,37.4274298],[-122.1663513,37.4275382],[-122.1663896,37.4275461],[-122.1663784,37.4275806],[-122.1665177,37.4276091]]]},"id":null,"properties":{"height":4.9,"num_floors":null,"class":null,"subtype":null,"has_parts":false,"sources":[{"property":"","dataset":"OpenStreetMap","license":"ODbL-1.0","record_id":"w232805747@1","update_time":"2021-03-14T20:01:29.000Z","confidence":null,"between":null},{"property":"/properties/height","dataset":"USGS Lidar","license":null,"record_id":null,"update_time":null,"confidence":null,"between":null}]}},{"type":"Feature","geometry":{"type":"Polygon","coordinates":[[[-122.1670144,37.4277914],[-122.167147,37.4278188],[-122.1672524,37.427497],[-122.1668427,37.4274124],[-122.1667374,37.4277336],[-122.166864,37.4277597],[-122.1668584,37.4277766],[-122.1668798,37.427781],[-122.1668714,37.4278069],[-122.1669245,37.4278178],[-122.1669789,37.4278291],[-122.1669864,37.4278061],[-122.1670081,37.4278106],[-122.1670144,37.4277914]]]},"id":null,"properties":{"height":87.0,"num_floors":14,"class":"school","subtype":"education","has_parts":true,"sources":[{"property":"","dataset":"OpenStreetMap","license":"ODbL-1.0","record_id":"w232805688@7","update_time":"2024-12-27T04:02:52.000Z","confidence":null,"between":null}]}},{"type":"Feature","geometry":{"type":"Polygon","coordinates":[[[-122.166908,37.4262174],[-122.1670227,37.4262416],[-122.1670399,37.42619],[-122.1669252,37.4261659],[-122.166908,37.4262174]]]},"id":null,"properties":{"height":4.2,"num_floors":null,"class":null,"subtype":"commercial","has_parts":false,"sources":[{"property":"","dataset":"OpenStreetMap","license":"ODbL-1.0","record_id":"w232805662@3","update_time":"2024-12-02T01:26:48.000Z","confidence":null,"between":null},{"property":"/properties/height","dataset":"USGS Lidar","license":null,"record_id":null,"update_time":null,"confidence":null,"between":null}]}},{"type":"Feature","geometry":{"type":"Polygon","coordinates":[[[-122.1671372,37.4269435],[-122.1671076,37.4269374],[-122.1671826,37.42671],[-122.1672105,37.4267158],[-122.1672411,37.4266228],[-122.1672341,37.4266214],[-122.1671578,37.4266055],[-122.1670735,37.426588],[-122.1671212,37.4264432],[-122.1671143,37.4264418],[-122.1669562,37.4264089],[-122.1670002,37.4262752],[-122.1667936,37.4262322],[-122.1667706,37.4263021],[-122.1666226,37.4262713],[-122.1665969,37.4263492],[-122.1665586,37.4263412],[-122.1664803,37.426579],[-122.1664528,37.4266623],[-122.1664866,37.4266693],[-122.1664516,37.4267754],[-122.1666208,37.4268106],[-122.166598,37.4268797],[-122.1667639,37.4269142],[-122.1667406,37.4269846],[-122.1669333,37.4270246],[-122.1669502,37.4269735],[-122.167116,37.4270079],[-122.1671372,37.4269435]]]},"id":null,"properties":{"height":19.7,"num_floors":null,"class":"university","subtype":"education","has_parts":false,"sources":[{"property":"","dataset":"OpenStreetMap","license":"ODbL-1.0","record_id":"w232805660@7","update_time":"2024-12-02T01:55:59.000Z","confidence":null,"between":null},{"property":"/properties/height","dataset":"USGS Lidar","license":null,"record_id":null,"update_time":null,"confidence":null,"between":null}]}},{"type":"Feature","geometry":{"type":"Polygon","coordinates":[[[-122.1666909,37.4254351],[-122.1667053,37.4253915],[-122.1666874,37.4253877],[-122.1667678,37.4251444],[-122.1668438,37.4251602],[-122.1668789,37.4252108],[-122.1669856,37.4251642],[-122.166927,37.4250796],[-122.1666087,37.4250132],[-122.1664835,37.4253918],[-122.1666909,37.4254351]]]},"id":null,"properties":{"height":11.434846878051758,"num_floors":null,"class":"university","subtype":"education","has_parts":false,"sources":[{"property":"","dataset":"OpenStreetMap","license":"ODbL-1.0","record_id":"w232805743@4","update_time":"2024-08-25T14:57:19.000Z","confidence":null,"between":null},{"property":"/properties/height","dataset":"Microsoft ML Buildings","license":"ODbL-1.0","record_id":null,"update_time":"2023-09-01T00:00:00.000Z","confidence":0.9620000123977661,"between":null}]}},{"type":"Feature","geometry":{"type":"Polygon","coordinates":[[[-122.166764,37.424421],[-122.166622,37.424845],[-122.166743,37.424871],[-122.166755,37.424888],[-122.166805,37.424899],[-122.166858,37.424876],[-122.166841,37.424853],[-122.166931,37.424813],[-122.166946,37.424835],[-122.167037,37.424796],[-122.167151,37.424821],[-122.167297,37.424394],[-122.167169,37.424365],[-122.167163,37.424353],[-122.167106,37.42434],[-122.167056,37.424365],[-122.167073,37.424387],[-122.166984,37.424428],[-122.166968,37.424406],[-122.166873,37.424445],[-122.166764,37.424421]]]},"id":null,"properties":{"height":10.127984046936035,"num_floors":null,"class":"university","subtype":"education","has_parts":false,"sources":[{"property":"","dataset":"OpenStreetMap","license":"ODbL-1.0","record_id":"w232805740@3","update_time":"2024-08-25T14:57:18.000Z","confidence":null,"between":null},{"property":"/properties/height","dataset":"Microsoft ML Buildings","license":"ODbL-1.0","record_id":null,"update_time":"2023-09-01T00:00:00.000Z","confidence":0.9829000234603882,"between":null}]}},{"type":"Feature","geometry":{"type":"Polygon","coordinates":[[[-122.1676415,37.4262493],[-122.1675593,37.4262331],[-122.1675091,37.4263936],[-122.1676557,37.4264225],[-122.1676939,37.4263001],[-122.1676295,37.4262874],[-122.1676415,37.4262493]]]},"id":null,"properties":{"height":2.979044198989868,"num_floors":null,"class":null,"subtype":null,"has_parts":false,"sources":[{"property":"","dataset":"Microsoft ML Buildings","license":"ODbL-1.0","record_id":null,"update_time":"2023-09-01T00:00:00.000Z","confidence":0.98089998960495,"between":null}]}},{"type":"Feature","geometry":{"type":"Polygon","coordinates":[[[-122.1671598,37.4270605],[-122.1671472,37.4270987],[-122.1671678,37.427103],[-122.167185,37.4271066],[-122.1673789,37.4271469],[-122.1674588,37.4271635],[-122.1675022,37.4271725],[-122.1675422,37.4271808],[-122.1677609,37.4272263],[-122.1677837,37.427231],[-122.1678655,37.427248],[-122.1678795,37.4272509],[-122.1678949,37.4272541],[-122.1679197,37.4272593],[-122.1679593,37.4271393],[-122.1679973,37.4271472],[-122.168043,37.4270084],[-122.1680888,37.4268694],[-122.1680567,37.4268627],[-122.1681154,37.4266848],[-122.1680323,37.4266675],[-122.1680099,37.4267354],[-122.1673221,37.4265925],[-122.1672769,37.4267296],[-122.1672105,37.4267158],[-122.1671826,37.42671],[-122.1671076,37.4269374],[-122.1671372,37.4269435],[-122.1671666,37.4269496],[-122.1671944,37.4269554],[-122.1671665,37.42704],[-122.1671598,37.4270605]]]},"id":null,"properties":{"height":24.9,"num_floors":null,"class":"university","subtype":"education","has_parts":false,"sources":[{"property":"","dataset":"OpenStreetMap","license":"ODbL-1.0","record_id":"w232805680@9","update_time":"2024-12-02T01:55:59.000Z","confidence":null,"between":null},{"property":"/properties/height","dataset":"USGS Lidar","license":null,"record_id":null,"update_time":null,"confidence":null,"between":null}]}},{"type":"Feature","geometry":{"type":"Polygon","coordinates":[[[-122.1674757,37.4297322],[-122.1676101,37.4293285],[-122.1675479,37.4293155],[-122.1676434,37.4290286],[-122.1677086,37.4290422],[-122.1677887,37.4288017],[-122.1671545,37.4286685],[-122.1670729,37.4289135],[-122.1672355,37.4289477],[-122.1671383,37.4292398],[-122.1669872,37.4292081],[-122.1668606,37.4295881],[-122.1669067,37.4295978],[-122.1669021,37.4296117],[-122.1674757,37.4297322]]]},"id":null,"properties":{"height":10.256573677062988,"num_floors":4,"class":"library","subtype":"education","has_parts":false,"sources":[{"property":"","dataset":"OpenStreetMap","license":"ODbL-1.0","record_id":"w232805685@4","update_time":"2019-10-26T09:43:27.000Z","confidence":null,"between":null},{"property":"/properties/height","dataset":"Microsoft ML Buildings","license":"ODbL-1.0","record_id":null,"update_time":"2023-09-01T00:00:00.000Z","confidence":0.9656000137329102,"between":null}]}},{"type":"Feature","geometry":{"type":"Polygon","coordinates":[[[-122.1679375,37.4281498],[-122.1680235,37.4281218],[-122.1680635,37.4279928],[-122.1673925,37.4278548],[-122.1673375,37.4280208],[-122.1679375,37.4281498]]]},"id":null,"properties":{"height":12.9,"num_floors":null,"class":null,"subtype":"entertainment","has_parts":false,"sources":[{"property":"","dataset":"OpenStreetMap","license":"ODbL-1.0","record_id":"w232805678@3","update_time":"2021-03-14T20:01:29.000Z","confidence":null,"between":null},{"property":"/properties/height","dataset":"USGS Lidar","license":null,"record_id":null,"update_time":null,"confidence":null,"between":null}]}},{"type":"Feature","geometry":{"type":"Polygon","coordinates":[[[-122.1681905,37.4277084],[-122.1682752,37.4274581],[-122.1674573,37.4272835],[-122.1674475,37.4273124],[-122.1673849,37.427299],[-122.167326,37.4274725],[-122.1673894,37.4274861],[-122.1673728,37.4275352],[-122.1677839,37.4276231],[-122.1677617,37.4276886],[-122.1677479,37.4276857],[-122.16769,37.4278563],[-122.1678577,37.4278921],[-122.1679153,37.4277219],[-122.1678968,37.4277179],[-122.1679196,37.4276506],[-122.1681905,37.4277084]]]},"id":null,"properties":{"height":16.1,"num_floors":null,"class":"university","subtype":"education","has_parts":false,"sources":[{"property":"","dataset":"OpenStreetMap","license":"ODbL-1.0","record_id":"w545210038@3","update_time":"2024-12-02T01:26:48.000Z","confidence":null,"between":null},{"property":"/properties/height","dataset":"USGS Lidar","license":null,"record_id":null,"update_time":null,"confidence":null,"between":null}]}},{"type":"Feature","geometry":{"type":"Polygon","coordinates":[[[-122.1680402,37.4266435],[-122.1680323,37.4266675],[-122.1681154,37.4266848],[-122.1681233,37.4266608],[-122.1681312,37.4266368],[-122.1681075,37.4266319],[-122.1680481,37.4266196],[-122.1680402,37.4266435]]]},"id":null,"properties":{"height":8.9,"num_floors":null,"class":null,"subtype":null,"has_parts":false,"sources":[{"property":"","dataset":"OpenStreetMap","license":"ODbL-1.0","record_id":"w1172347006@1","update_time":"2023-05-13T07:59:27.000Z","confidence":null,"between":null},{"property":"/properties/height","dataset":"USGS Lidar","license":null,"record_id":null,"update_time":null,"confidence":null,"between":null}]}},{"type":"Feature","geometry":{"type":"Polygon","coordinates":[[[-122.1684986,37.4265751],[-122.1685665,37.4265892],[-122.1686807,37.4262428],[-122.1686146,37.4262291],[-122.1686583,37.4260964],[-122.1685189,37.4260674],[-122.1684749,37.4262009],[-122.1682348,37.4261511],[-122.1682789,37.4260173],[-122.1681742,37.4259955],[-122.1681338,37.426118],[-122.1679736,37.4266041],[-122.1680481,37.4266196],[-122.1681075,37.4266319],[-122.1681102,37.4266238],[-122.1681371,37.4265422],[-122.1681514,37.4264987],[-122.1683599,37.426542],[-122.1683154,37.4266771],[-122.1684553,37.4267062],[-122.1684986,37.4265751]]]},"id":null,"properties":{"height":17.9,"num_floors":null,"class":"university","subtype":"education","has_parts":false,"sources":[{"property":"","dataset":"OpenStreetMap","license":"ODbL-1.0","record_id":"w232805663@5","update_time":"2023-05-13T07:59:27.000Z","confidence":null,"between":null},{"property":"/properties/height","dataset":"USGS Lidar","license":null,"record_id":null,"update_time":null,"confidence":null,"between":null}]}},{"type":"Feature","geometry":{"type":"Polygon","coordinates":[[[-122.1682755,37.4239041],[-122.1682618,37.4239449],[-122.1682072,37.4239333],[-122.1681543,37.4240907],[-122.1678154,37.4240189],[-122.1678688,37.4238601],[-122.1678043,37.4238464],[-122.1678182,37.423805],[-122.1672461,37.4236836],[-122.1670824,37.4241697],[-122.1677161,37.4243043],[-122.1677701,37.4241438],[-122.1679619,37.4241832],[-122.168113,37.4242165],[-122.1680588,37.424378],[-122.1683672,37.4244433],[-122.1685301,37.423958],[-122.1682755,37.4239041]]]},"id":null,"properties":{"height":11.080883979797363,"num_floors":null,"class":"university","subtype":"education","has_parts":false,"sources":[{"property":"","dataset":"OpenStreetMap","license":"ODbL-1.0","record_id":"w232805735@3","update_time":"2025-10-06T03:31:46.000Z","confidence":null,"between":null},{"property":"/properties/height","dataset":"Microsoft ML Buildings","license":"ODbL-1.0","record_id":null,"update_time":"2023-09-01T00:00:00.000Z","confidence":0.9855999946594238,"between":null}]}},{"type":"Feature","geometry":{"type":"Polygon","coordinates":[[[-122.168961,37.42501],[-122.168967,37.425009],[-122.1690131,37.4250184],[-122.169056,37.4248858],[-122.1691001,37.4247496],[-122.1690554,37.4247405],[-122.1690844,37.424651],[-122.1688412,37.4246018],[-122.1687662,37.4245861],[-122.1687593,37.424607],[-122.1687298,37.4246009],[-122.1686518,37.4245842],[-122.1686538,37.4245782],[-122.1685528,37.4245568],[-122.1685327,37.4246166],[-122.1683984,37.4245882],[-122.1683003,37.4248803],[-122.1684498,37.4249119],[-122.1684113,37.4250265],[-122.1686685,37.425081],[-122.1686808,37.4250442],[-122.1689317,37.4250973],[-122.168961,37.42501]]]},"id":null,"properties":{"height":6.289319038391113,"num_floors":2,"class":null,"subtype":null,"has_parts":false,"sources":[{"property":"","dataset":"OpenStreetMap","license":"ODbL-1.0","record_id":"w232805686@5","update_time":"2019-04-16T06:57:29.000Z","confidence":null,"between":null},{"property":"/properties/height","dataset":"Microsoft ML Buildings","license":"ODbL-1.0","record_id":null,"update_time":"2023-09-01T00:00:00.000Z","confidence":0.9865000247955322,"between":null}]}},{"type":"Feature","geometry":{"type":"Polygon","coordinates":[[[-122.1686668,37.4257169],[-122.1687005,37.425724],[-122.1686897,37.4257561],[-122.1689474,37.4258105],[-122.1690274,37.4255717],[-122.1687903,37.4255217],[-122.168753,37.4256332],[-122.1685759,37.4255959],[-122.1685094,37.4257946],[-122.1686205,37.425818],[-122.1686322,37.4258205],[-122.1686668,37.4257169]]]},"id":null,"properties":{"height":10.5,"num_floors":null,"class":"university","subtype":"education","has_parts":false,"sources":[{"property":"","dataset":"OpenStreetMap","license":"ODbL-1.0","record_id":"w232805684@4","update_time":"2023-05-09T19:31:08.000Z","confidence":null,"between":null},{"property":"/properties/height","dataset":"USGS Lidar","license":null,"record_id":null,"update_time":null,"confidence":null,"between":null}]}},{"type":"Feature","geometry":{"type":"Polygon","coordinates":[[[-122.168789,37.4244227],[-122.1687298,37.4246009],[-122.1687593,37.424607],[-122.1687662,37.4245861],[-122.1688412,37.4246018],[-122.1688934,37.4244445],[-122.168789,37.4244227]]]},"id":null,"properties":{"height":3.8,"num_floors":null,"class":"roof","subtype":"outbuilding","has_parts":false,"sources":[{"property":"","dataset":"OpenStreetMap","license":"ODbL-1.0","record_id":"w580337064@1","update_time":"2018-04-16T07:00:10.000Z","confidence":null,"between":null},{"property":"/properties/height","dataset":"USGS Lidar","license":null,"record_id":null,"update_time":null,"confidence":null,"between":null}]}},{"type":"Feature","geometry":{"type":"Polygon","coordinates":[[[-122.168713,37.424105],[-122.168625,37.424385],[-122.168789,37.4244227],[-122.1688934,37.4244445],[-122.169078,37.424484],[-122.1691215,37.4243536],[-122.169171,37.424205],[-122.168713,37.424105]]]},"id":null,"properties":{"height":8.6,"num_floors":null,"class":"post_office","subtype":"civic","has_parts":false,"sources":[{"property":"","dataset":"OpenStreetMap","license":"ODbL-1.0","record_id":"w232805741@9","update_time":"2025-07-11T01:47:10.000Z","confidence":null,"between":null},{"property":"/properties/height","dataset":"USGS Lidar","license":null,"record_id":null,"update_time":null,"confidence":null,"between":null}]}},{"type":"Feature","geometry":{"type":"Polygon","coordinates":[[[-122.1688431,37.4259826],[-122.1688611,37.4259276],[-122.1689271,37.4259426],[-122.1689371,37.4259136],[-122.1688711,37.4258996],[-122.1688971,37.4258196],[-122.1688601,37.4258106],[-122.1688071,37.4259746],[-122.1688431,37.4259826]]]},"id":null,"properties":{"height":2.8,"num_floors":null,"class":null,"subtype":null,"has_parts":false,"sources":[{"property":"","dataset":"OpenStreetMap","license":"ODbL-1.0","record_id":"w232805683@1","update_time":"2019-06-13T09:33:35.000Z","confidence":null,"between":null},{"property":"/properties/height","dataset":"USGS Lidar","license":null,"record_id":null,"update_time":null,"confidence":null,"between":null}]}},{"type":"Feature","geometry":{"type":"Polygon","coordinates":[[[-122.167921,37.430161],[-122.167903,37.430211],[-122.167845,37.430201],[-122.167775,37.4304],[-122.1675399,37.4303505],[-122.167276,37.430295],[-122.167343,37.430083],[-122.167286,37.430074],[-122.1673,37.430027],[-122.167214,37.43001],[-122.167093,37.430378],[-122.1675017,37.4304643],[-122.167893,37.430547],[-122.168016,37.430181],[-122.167921,37.430161]]]},"id":null,"properties":{"height":12.384292602539062,"num_floors":null,"class":null,"subtype":null,"has_parts":false,"sources":[{"property":"","dataset":"OpenStreetMap","license":"ODbL-1.0","record_id":"w232805717@3","update_time":"2024-08-25T14:57:13.000Z","confidence":null,"between":null},{"property":"/properties/height","dataset":"Microsoft ML Buildings","license":"ODbL-1.0","record_id":null,"update_time":"2023-09-01T00:00:00.000Z","confidence":0.9714000225067139,"between":null}]}},{"type":"Feature","geometry":{"type":"Polygon","coordinates":[[[-122.167183,37.430096],[-122.167188,37.430078],[-122.167139,37.430067],[-122.167156,37.430012],[-122.166751,37.429925],[-122.166734,37.429983],[-122.166778,37.429994],[-122.166773,37.43001],[-122.166793,37.430014],[-122.166774,37.430067],[-122.167112,37.430141],[-122.167133,37.430085],[-122.167183,37.430096]]]},"id":null,"properties":{"height":15.9,"num_floors":null,"class":null,"subtype":null,"has_parts":false,"sources":[{"property":"","dataset":"OpenStreetMap","license":"ODbL-1.0","record_id":"w232805687@1","update_time":"2013-08-08T15:53:19.000Z","confidence":null,"between":null},{"property":"/properties/height","dataset":"USGS Lidar","license":null,"record_id":null,"update_time":null,"confidence":null,"between":null}]}},{"type":"Feature","geometry":{"type":"Polygon","coordinates":[[[-122.166192,37.4299479],[-122.1665356,37.4300204],[-122.1665789,37.429891],[-122.1662353,37.4298185],[-122.1662236,37.4298532],[-122.166192,37.4299479]]]},"id":null,"properties":{"height":5.9,"num_floors":null,"class":null,"subtype":null,"has_parts":false,"sources":[{"property":"","dataset":"OpenStreetMap","license":"ODbL-1.0","record_id":"w980962134@3","update_time":"2024-08-12T09:35:33.000Z","confidence":null,"between":null},{"property":"/properties/height","dataset":"USGS Lidar","license":null,"record_id":null,"update_time":null,"confidence":null,"between":null}]}},{"type":"Feature","geometry":{"type":"Polygon","coordinates":[[[-122.1660213,37.4302979],[-122.1660553,37.4302956],[-122.1660464,37.4302119],[-122.1660125,37.4302142],[-122.1660213,37.4302979]]]},"id":null,"properties":{"height":null,"num_floors":1,"class":null,"subtype":null,"has_parts":false,"sources":[{"property":"","dataset":"OpenStreetMap","license":"ODbL-1.0","record_id":"w1302912205@2","update_time":"2025-10-01T09:22:35.000Z","confidence":null,"between":null}]}},{"type":"Feature","geometry":{"type":"Polygon","coordinates":[[[-122.1660785,37.4305397],[-122.1661579,37.430521],[-122.1660988,37.4303504],[-122.1660874,37.4303173],[-122.1657743,37.4303387],[-122.1657709,37.4303715],[-122.1657528,37.4305455],[-122.1658017,37.430551],[-122.1658739,37.4305574],[-122.1659446,37.4305569],[-122.1660053,37.4305512],[-122.1660785,37.4305397]]]},"id":null,"properties":{"height":7.981505393981934,"num_floors":null,"class":"roof","subtype":"outbuilding","has_parts":false,"sources":[{"property":"","dataset":"OpenStreetMap","license":"ODbL-1.0","record_id":"w31705901@6","update_time":"2024-07-21T18:37:08.000Z","confidence":null,"between":null},{"property":"/properties/height","dataset":"Microsoft ML Buildings","license":"ODbL-1.0","record_id":null,"update_time":"2023-09-01T00:00:00.000Z","confidence":0.9941999912261963,"between":null}]}},{"type":"Feature","geometry":{"type":"Polygon","coordinates":[[[-122.1658111,37.4303095],[-122.1658675,37.4303061],[-122.1658594,37.4302219],[-122.1658031,37.4302253],[-122.1658111,37.4303095]]]},"id":null,"properties":{"height":null,"num_floors":1,"class":null,"subtype":null,"has_parts":false,"sources":[{"property":"","dataset":"OpenStreetMap","license":"ODbL-1.0","record_id":"w1302912206@2","update_time":"2025-10-01T09:22:35.000Z","confidence":null,"between":null}]}},{"type":"Feature","geometry":{"type":"Polygon","coordinates":[[[-122.1658097,37.4298143],[-122.1659345,37.4298405],[-122.1659492,37.4297965],[-122.1659604,37.4297628],[-122.1657843,37.4297258],[-122.1657638,37.4297874],[-122.1657584,37.4298035],[-122.1658097,37.4298143]]]},"id":null,"properties":{"height":4.6,"num_floors":null,"class":null,"subtype":null,"has_parts":false,"sources":[{"property":"","dataset":"OpenStreetMap","license":"ODbL-1.0","record_id":"w232805689@3","update_time":"2024-07-21T18:37:08.000Z","confidence":null,"between":null},{"property":"/properties/height","dataset":"USGS Lidar","license":null,"record_id":null,"update_time":null,"confidence":null,"between":null}]}},{"type":"Feature","geometry":{"type":"Polygon","coordinates":[[[-122.1650128,37.4305817],[-122.1651897,37.4300518],[-122.1648962,37.42999],[-122.164729,37.4304905],[-122.1648576,37.4305176],[-122.1648499,37.4305409],[-122.1647548,37.4305208],[-122.1646758,37.4307574],[-122.1647556,37.4307742],[-122.1647432,37.4308113],[-122.1646168,37.4307846],[-122.164469,37.4312272],[-122.1646373,37.4312626],[-122.1646265,37.4312948],[-122.1648392,37.4313396],[-122.1648486,37.4313115],[-122.1651023,37.4313649],[-122.165185,37.4311173],[-122.16486,37.4310489],[-122.1649349,37.4308246],[-122.1650158,37.4308416],[-122.1650967,37.4305993],[-122.1650128,37.4305817]]]},"id":null,"properties":{"height":19.5,"num_floors":null,"class":null,"subtype":null,"has_parts":false,"sources":[{"property":"","dataset":"OpenStreetMap","license":"ODbL-1.0","record_id":"w30754713@5","update_time":"2017-03-19T08:59:29.000Z","confidence":null,"between":null},{"property":"/properties/height","dataset":"USGS Lidar","license":null,"record_id":null,"update_time":null,"confidence":null,"between":null}]}},{"type":"Feature","geometry":{"type":"Polygon","coordinates":[[[-122.1647507,37.4291815],[-122.1648457,37.4288995],[-122.1647197,37.4288745],[-122.1647247,37.4288485],[-122.1645217,37.4288045],[-122.1645417,37.4287425],[-122.1642957,37.4286905],[-122.1643067,37.4286575],[-122.1642197,37.4286385],[-122.1642077,37.4286705],[-122.1639297,37.4286135],[-122.1639087,37.4286735],[-122.1637877,37.4286485],[-122.1636787,37.4289775],[-122.1638127,37.4290055],[-122.1638097,37.4290205],[-122.1639517,37.4290525],[-122.1639557,37.4290365],[-122.1640497,37.4290565],[-122.1640327,37.4291125],[-122.1640757,37.4291209],[-122.1641257,37.4291305],[-122.1641447,37.4290765],[-122.1642367,37.4290955],[-122.1642317,37.4291125],[-122.1643737,37.4291425],[-122.1643787,37.4291275],[-122.1646137,37.4291775],[-122.1646237,37.4291545],[-122.1647507,37.4291815]]]},"id":null,"properties":{"height":12.4,"num_floors":null,"class":null,"subtype":null,"has_parts":false,"sources":[{"property":"","dataset":"OpenStreetMap","license":"ODbL-1.0","record_id":"w232805671@3","update_time":"2025-08-28T20:27:52.000Z","confidence":null,"between":null},{"property":"/properties/height","dataset":"USGS Lidar","license":null,"record_id":null,"update_time":null,"confidence":null,"between":null}]}},{"type":"Feature","geometry":{"type":"Polygon","coordinates":[[[-122.1649946,37.4275165],[-122.1650566,37.4273325],[-122.1648406,37.4272885],[-122.1648516,37.4272535],[-122.1649066,37.4272675],[-122.1649386,37.4271685],[-122.1648846,37.4271575],[-122.1649016,37.4270985],[-122.1646666,37.4270557],[-122.1646486,37.4271107],[-122.1646026,37.4271029],[-122.1645756,37.4271925],[-122.1646246,37.4272045],[-122.1646136,37.4272395],[-122.1643916,37.4271915],[-122.1643306,37.4273745],[-122.1646604,37.4274451],[-122.1649946,37.4275165]]]},"id":null,"properties":{"height":19.7,"num_floors":null,"class":null,"subtype":null,"has_parts":false,"sources":[{"property":"","dataset":"OpenStreetMap","license":"ODbL-1.0","record_id":"w232841915@4","update_time":"2026-05-22T23:03:40.000Z","confidence":null,"between":null},{"property":"/properties/height","dataset":"USGS Lidar","license":null,"record_id":null,"update_time":null,"confidence":null,"between":null}]}},{"type":"Feature","geometry":{"type":"Polygon","coordinates":[[[-122.1651526,37.4271514],[-122.1652476,37.4271689],[-122.1653876,37.4267467],[-122.1654016,37.4267069],[-122.1644856,37.4265129],[-122.1643276,37.4269799],[-122.1643996,37.4269952],[-122.1644506,37.4268325],[-122.1647676,37.4269034],[-122.1647306,37.4270177],[-122.1648746,37.4270483],[-122.1649176,37.4269356],[-122.1652096,37.4269952],[-122.1651526,37.4271514]]]},"id":null,"properties":{"height":11.2,"num_floors":null,"class":null,"subtype":null,"has_parts":false,"sources":[{"property":"","dataset":"OpenStreetMap","license":"ODbL-1.0","record_id":"w232841883@3","update_time":"2026-05-22T23:03:40.000Z","confidence":null,"between":null},{"property":"/properties/height","dataset":"USGS Lidar","license":null,"record_id":null,"update_time":null,"confidence":null,"between":null}]}},{"type":"Feature","geometry":{"type":"Polygon","coordinates":[[[-122.1648777,37.4263225],[-122.164892,37.4262796],[-122.1649096,37.4262833],[-122.1649224,37.4262449],[-122.1649048,37.4262412],[-122.1649186,37.4261998],[-122.1647343,37.426161],[-122.1647736,37.4260434],[-122.1647589,37.4260403],[-122.1648767,37.4256872],[-122.1648969,37.4256914],[-122.164935,37.4255773],[-122.1651149,37.4256151],[-122.1651291,37.4255725],[-122.1651467,37.4255762],[-122.1651614,37.4255321],[-122.1651431,37.4255282],[-122.165157,37.4254867],[-122.1648324,37.4254181],[-122.1647614,37.4256297],[-122.1647543,37.4256509],[-122.1647228,37.4256443],[-122.1645986,37.4260143],[-122.1646318,37.4260213],[-122.1646236,37.4260456],[-122.1645537,37.4262539],[-122.1648777,37.4263225]]]},"id":null,"properties":{"height":11.4,"num_floors":null,"class":null,"subtype":null,"has_parts":false,"sources":[{"property":"","dataset":"OpenStreetMap","license":"ODbL-1.0","record_id":"w232841935@2","update_time":"2019-06-08T03:46:16.000Z","confidence":null,"between":null},{"property":"/properties/height","dataset":"USGS Lidar","license":null,"record_id":null,"update_time":null,"confidence":null,"between":null}]}},{"type":"Feature","geometry":{"type":"Polygon","coordinates":[[[-122.1649836,37.4275505],[-122.1651846,37.4275925],[-122.1653206,37.4271855],[-122.1652476,37.4271689],[-122.1651526,37.4271514],[-122.1651196,37.4271435],[-122.1650566,37.4273325],[-122.1649946,37.4275165],[-122.1649836,37.4275505]]]},"id":null,"properties":{"height":19.3,"num_floors":null,"class":null,"subtype":null,"has_parts":false,"sources":[{"property":"","dataset":"OpenStreetMap","license":"ODbL-1.0","record_id":"w232841906@2","update_time":"2026-05-22T23:03:40.000Z","confidence":null,"between":null},{"property":"/properties/height","dataset":"USGS Lidar","license":null,"record_id":null,"update_time":null,"confidence":null,"between":null}]}},{"type":"Feature","geometry":{"type":"Polygon","coordinates":[[[-122.1651032,37.427723],[-122.165065,37.427714],[-122.1650254,37.4278197],[-122.1650637,37.4278287],[-122.1651032,37.427723]]]},"id":null,"properties":{"height":3.693903923034668,"num_floors":null,"class":null,"subtype":null,"has_parts":false,"sources":[{"property":"","dataset":"Microsoft ML Buildings","license":"ODbL-1.0","record_id":null,"update_time":"2023-09-01T00:00:00.000Z","confidence":0.9987000226974487,"between":null}]}},{"type":"Feature","geometry":{"type":"Polygon","coordinates":[[[-122.1657891,37.428943],[-122.1655431,37.428893],[-122.1654401,37.4292142],[-122.1651831,37.4291622],[-122.1651391,37.4292994],[-122.1655561,37.4293841],[-122.1655831,37.4293017],[-122.1656681,37.429319],[-122.1657891,37.428943]]]},"id":null,"properties":{"height":11.456865310668945,"num_floors":null,"class":null,"subtype":null,"has_parts":false,"sources":[{"property":"","dataset":"OpenStreetMap","license":"ODbL-1.0","record_id":"w182325610@3","update_time":"2021-03-14T20:01:29.000Z","confidence":null,"between":null},{"property":"/properties/height","dataset":"Microsoft ML Buildings","license":"ODbL-1.0","record_id":null,"update_time":"2023-09-01T00:00:00.000Z","confidence":0.9861000180244446,"between":null}]}},{"type":"Feature","geometry":{"type":"Polygon","coordinates":[[[-122.1652796,37.4262788],[-122.1652384,37.4264025],[-122.1655576,37.4264695],[-122.1656389,37.4262253],[-122.1656707,37.426232],[-122.1657856,37.4258865],[-122.1657567,37.4258805],[-122.1658369,37.4256393],[-122.1655053,37.4255698],[-122.1654634,37.4256959],[-122.1656517,37.4257353],[-122.1656122,37.4258543],[-122.1656382,37.4258598],[-122.1655251,37.4262002],[-122.1655049,37.4261959],[-122.1654644,37.4263176],[-122.1652796,37.4262788]]]},"id":null,"properties":{"height":10.0,"num_floors":null,"class":null,"subtype":null,"has_parts":false,"sources":[{"property":"","dataset":"OpenStreetMap","license":"ODbL-1.0","record_id":"w26291934@5","update_time":"2019-06-06T08:31:55.000Z","confidence":null,"between":null},{"property":"/properties/height","dataset":"USGS Lidar","license":null,"record_id":null,"update_time":null,"confidence":null,"between":null}]}},{"type":"Feature","geometry":{"type":"Polygon","coordinates":[[[-122.1654352,37.425654],[-122.1654662,37.425554],[-122.1654532,37.425532],[-122.1653516,37.4255109],[-122.1652462,37.425489],[-122.1652182,37.425502],[-122.1651862,37.425601],[-122.1654352,37.425654]]]},"id":null,"properties":{"height":8.1,"num_floors":null,"class":null,"subtype":null,"has_parts":false,"sources":[{"property":"","dataset":"OpenStreetMap","license":"ODbL-1.0","record_id":"w232841950@3","update_time":"2019-07-06T10:01:16.000Z","confidence":null,"between":null},{"property":"/properties/height","dataset":"USGS Lidar","license":null,"record_id":null,"update_time":null,"confidence":null,"between":null}]}},{"type":"Feature","geometry":{"type":"Polygon","coordinates":[[[-122.1657843,37.4238716],[-122.1658459,37.4238842],[-122.1658645,37.4238372],[-122.1652987,37.4237061],[-122.1652901,37.4237313],[-122.1652621,37.4237253],[-122.1652403,37.4237893],[-122.1652793,37.4237977],[-122.1652686,37.423829],[-122.1653467,37.4238457],[-122.1653651,37.4238497],[-122.1653616,37.42386],[-122.1656219,37.4239158],[-122.1655992,37.4239826],[-122.1655536,37.4241167],[-122.1655504,37.4241262],[-122.1655251,37.4242004],[-122.1653925,37.424172],[-122.1653841,37.4241967],[-122.1653633,37.4242581],[-122.16532,37.4242488],[-122.1652899,37.4242423],[-122.1653898,37.4239482],[-122.1653188,37.423933],[-122.1652352,37.4239151],[-122.1651113,37.4242801],[-122.1652739,37.4243149],[-122.1652584,37.4243605],[-122.1654533,37.4244023],[-122.1655529,37.4244236],[-122.1655024,37.4245723],[-122.1654046,37.4245517],[-122.1652596,37.4245203],[-122.1652567,37.4245287],[-122.1650454,37.424483],[-122.1649413,37.4247865],[-122.1650537,37.4248108],[-122.1651082,37.4248226],[-122.16518,37.4246132],[-122.1653694,37.4246541],[-122.1653568,37.4246891],[-122.1653388,37.4247392],[-122.1653276,37.4247723],[-122.1653495,37.424777],[-122.1653114,37.4248884],[-122.1650469,37.4248313],[-122.1649299,37.4248061],[-122.1648808,37.4249497],[-122.1653951,37.4250606],[-122.165403,37.4250375],[-122.1654487,37.4250474],[-122.1654841,37.4249442],[-122.1654351,37.4249336],[-122.1654492,37.4248924],[-122.1654673,37.4248963],[-122.1655082,37.4247774],[-122.165587,37.4247944],[-122.165678,37.4248141],[-122.1656224,37.424976],[-122.1655789,37.4249666],[-122.1655459,37.4250626],[-122.1655952,37.4250732],[-122.1655875,37.4250956],[-122.1660116,37.4251873],[-122.1660162,37.4251738],[-122.1660905,37.4251899],[-122.1661286,37.4250785],[-122.1657204,37.4249905],[-122.1657346,37.4249491],[-122.1657508,37.4249526],[-122.1657887,37.4248414],[-122.1658127,37.4248465],[-122.1658503,37.4247356],[-122.1660175,37.4247713],[-122.1660529,37.4247789],[-122.1659773,37.4250018],[-122.1661225,37.4250328],[-122.1662217,37.42474],[-122.1660245,37.4246979],[-122.1660428,37.4246437],[-122.1658937,37.4246119],[-122.1658353,37.4245995],[-122.1658191,37.4246476],[-122.1657703,37.4246373],[-122.165826,37.424472],[-122.1659391,37.424496],[-122.1660818,37.4245263],[-122.1660972,37.4244806],[-122.1662886,37.4245212],[-122.1664079,37.424166],[-122.1662439,37.4241312],[-122.166157,37.42439],[-122.1659873,37.4243541],[-122.1660391,37.4241998],[-122.1660169,37.4241951],[-122.1660647,37.4240524],[-122.1660217,37.4240433],[-122.1660335,37.424008],[-122.1663568,37.4240762],[-122.1663596,37.4240677],[-122.1664538,37.4240876],[-122.1664944,37.4239664],[-122.1659899,37.4238599],[-122.1659335,37.423848],[-122.165915,37.4239032],[-122.1659301,37.4239064],[-122.1659162,37.4239477],[-122.1659071,37.4239747],[-122.165954,37.4239847],[-122.1659399,37.4240264],[-122.1659106,37.4240202],[-122.1658617,37.4241644],[-122.1658754,37.4241674],[-122.1658716,37.4241785],[-122.1656957,37.4241405],[-122.1657062,37.4241064],[-122.1657381,37.4240097],[-122.1657697,37.4239161],[-122.1657843,37.4238716]],[[-122.1653844,37.4243279],[-122.1654055,37.4242611],[-122.1654933,37.4242786],[-122.1654722,37.4243454],[-122.1653844,37.4243279]]]},"id":null,"properties":{"height":7.0624003410339355,"num_floors":null,"class":"dormitory","subtype":"residential","has_parts":true,"sources":[{"property":"","dataset":"OpenStreetMap","license":"ODbL-1.0","record_id":"r22862@29","update_time":"2023-03-25T18:12:12.000Z","confidence":null,"between":null},{"property":"/properties/height","dataset":"Microsoft ML Buildings","license":"ODbL-1.0","record_id":null,"update_time":"2023-09-01T00:00:00.000Z","confidence":0.8284000158309937,"between":null}]}}]}
